NUSAT-1 (FRESCO)        
1 41557U 16033B   22010.58290791  .00003253  00000+0  11105-3 0  9994
2 41557  97.3913 108.5370 0011275 213.8678 270.9745 15.30992335313204
BEESAT-4                
1 41619U 16040W   22010.11895778  .00004528  00000+0  17267-3 0  9997
2 41619  97.2430  65.2693 0009197 328.1065  31.9617 15.27138538296535
CAS-2T & KS-1Q          
1 41847U 16066G   22010.58189526  .00000165  00000+0  35809-4 0  9992
2 41847  98.5750  75.2777 0364046 322.0158  35.5852 14.38320158271653
NAYIF-1 (EO-88)         
1 42017U 17008BX  22010.43760487  .00006066  00000+0  21106-3 0  9994
2 42017  97.2926  79.2583 0007263  92.6432 267.5640 15.30038965272886
ZHUHAI-1 02 (CAS-4B)    
1 42759U 17034B   22010.55076884  .00000969  00000+0  70659-4 0  9994
2 42759  43.0155 122.1738 0007918  10.4400 101.8465 15.10701365252468
ZHUHAI-1 01 (CAS-4A)    
1 42761U 17034D   22010.57782329  .00000788  00000+0  59843-4 0  9998
2 42761  43.0161 120.9279 0008313  11.0302   2.8933 15.10787350252471
MAX VALIER SAT          
1 42778U 17036P   22010.58307355  .00002607  00000+0  10827-3 0  9991
2 42778  97.2299  57.1954 0012176 157.4595 202.7181 15.24630049252837
RADFXSAT (FOX-1B)       
1 43017U 17073E   22010.51562127  .00002338  00000+0  18326-3 0  9995
2 43017  97.6916 271.1384 0252658 344.7621  14.6078 14.80148556223742
FOX-1D (AO-92)          
1 43137U 18004AC  22010.44366953  .00003811  00000+0  14879-3 0  9990
2 43137  97.3877  87.2671 0007984 190.5322 169.5751 15.26486230222223
DIWATA-2B               
1 43678U 18084H   22010.66935654  .00000097  00000+0  15327-4 0  9995
2 43678  97.9478 142.3725 0011456  87.1190  40.1520 14.91873654174328
ES'HAIL 2               
1 43700U 18090A   22010.27423993  .00000151  00000+0  00000+0 0  9991
2 43700   0.0142 312.3178 0002191  11.9083 270.0654  1.00275219 11444
FOX-1CLIFF (AO-95)      
1 43770U 18099N   22010.40392915  .00001308  00000+0  12251-3 0  9991
2 43770  97.6431  80.7892 0015980  86.5665 273.7384 14.95659877169388
ITASAT 1                
1 43786U 18099AE  22010.41885603  .00000883  00000+0  83793-4 0  9997
2 43786  97.6456  81.6249 0016652  79.5751 280.7346 14.95911609169428
JY1SAT (JO-97)          
1 43803U 18099AX  22010.41145659  .00001376  00000+0  12671-3 0  9991
2 43803  97.6417  81.3545 0016580  79.4700 280.8389 14.96229206169439
UWE-4                   
1 43880U 18111E   22010.18823222  .00000443  00000+0  43170-4 0  9997
2 43880  97.6783 279.2803 0012949 126.6977 233.5437 14.97253716166015
NEXUS (FO-99)           
1 43937U 19003F   22010.35401132  .00004563  00000+0  17266-3 0  9995
2 43937  97.1528  50.1050 0022286   2.7203 357.4154 15.27194431165823
PSAT2 (NO-104)          
1 44354U 19036R   22010.51932023  .00023317  00000+0  27479-3 0  9996
2 44354  28.5248 178.0752 0291555  14.9562 345.9448 15.22595025140463
BRICSAT2 (NO-103)       
1 44355U 19036S   22010.48895272  .00103077 -37734-5  75480-3 0  9995
2 44355  28.5238  87.7582 0184491 161.4222 199.3224 15.52192417141365
JAISAT-1                
1 44419U 19038F   22010.54646109  .00003014  00000+0  16528-3 0  9995
2 44419  97.6168 339.9357 0019451 322.2327  37.7538 15.14807601139134
DUCHIFAT-3              
1 44854U 19089C   22010.52635555  .00001034  00000+0  87945-4 0  9997
2 44854  36.9648 315.7007 0007852   7.3968 352.6894 14.99956908114206
CAS-6 (TO-108)          
1 44881U 19093C   22010.47974081  .00000147  00000+0  25494-4 0  9991
2 44881  97.9085  91.8789 0014765 345.7717  14.3082 14.81538617111380
RS-44 & BREEZE-KM R/B   
1 44909U 19096E   22010.41911829  .00000032  00000+0  88530-4 0  9993
2 44909  82.5229 335.2867 0216950 329.5195  29.3439 12.79712059 95295
ORBITAL FACTORY 2 (OF-2)
1 45113U 19071C   22010.57448283  .00007512  00000+0  20468-3 0  9995
2 45113  51.6406 111.5820 0010830 324.4396  35.5865 15.38462367109028
HUSKYSAT-1 (HO-107)     
1 45119U 19071J   22010.52921980  .00007152  00000+0  19662-3 0  9990
2 45119  51.6407 111.2660 0010340 320.7381  39.2852 15.38267357109011
BY70-2                  
1 45857U 20042B   22010.42075450  .00001842  00000+0  26319-3 0  9997
2 45857  97.9697  88.9572 0009549 263.0467  96.9643 14.77847020 82100
SALSAT                  
1 46495U 20068K   22010.62864116  .00000772  00000+0  60579-4 0  9999
2 46495  97.7134 312.1354 0018554  92.2056 268.1294 15.03775625 70467
BY70-3                  
1 46839U 20079N   22010.47596453  .00004874  00000+0  14110-3 0  9998
2 46839  97.2197  85.2552 0006826 169.9876 318.7652 15.36027733 65956
RADFXSAT-2 (AO-109)     
1 47311U 21002C   22010.34355974  .00002480  00000+0  11596-3 0  9994
2 47311  60.6856 236.1620 0029568 153.4918 206.7688 15.22763610 54368
UVSQ-SAT                
1 47438U 21006AB  22010.39109144  .00002009  00000+0  11434-3 0  9997
2 47438  97.4619  72.6791 0014060 101.9497 258.3311 15.13893006 53353
DIY-1 (ARDUIQUBE)       
1 47963U 21022AH  22010.52985688  .00005511  00000+0  35149-3 0  9998
2 47963  97.5455 274.1961 0018001 321.7501  38.2449 15.08978104 43106
XW-3 (CAS-9)            
1 50466U 21131B   22010.41290477 -.00000024  00000+0  67617-5 0  9996
2 50466  98.5968  87.6479 0003519 251.9550 108.1250 14.38435605  2192
